#aP2002  8 20  0  0  0.00000000      96 __u+U IGS00 FIT ESOC
## 1180 172800.00000000   900.00000000 52506 0.0000000000000
+   26     1  2  3  4  5  6  7  8  9 10 11 13 14 18 20 21 22
+         23 24 25 26 27 28 29 30 31  0  0  0  0  0  0  0  0
+          0  0  0  0  0  0  0  0  0  0  0  0  0  0  0  0  0
+          0  0  0  0  0  0  0  0  0  0  0  0  0  0  0  0  0
+          0  0  0  0  0  0  0  0  0  0  0  0  0  0  0  0  0
++         5  6  5  5  5  5  5  5  6  5  5  5  5  5  5  5  5
++         6  5  7  5  5  5  5  5  5  0  0  0  0  0  0  0  0
++         0  0  0  0  0  0  0  0  0  0  0  0  0  0  0  0  0
++         0  0  0  0  0  0  0  0  0  0  0  0  0  0  0  0  0
++         0  0  0  0  0  0  0  0  0  0  0  0  0  0  0  0  0
%c cc cc ccc ccc cccc cccc cccc cccc ccccc ccccc ccccc ccccc
%c cc cc ccc ccc cccc cccc cccc cccc ccccc ccccc ccccc ccccc
%f  0.0000000  0.000000000  0.00000000000  0.000000000000000
%f  0.0000000  0.000000000  0.00000000000  0.000000000000000
%i    0    0    0    0      0      0      0      0         0
%i    0    0    0    0      0      0      0      0         0
/*                                                          
/*       ESA / EUROPEAN SPACE OPERATIONS CENTRE (ESOC)      
/*                                                          
/*                                                          
*  2002  8 20  2 30  0.00000000                             
P  1   1827.340912 -23431.441028 -12174.152669    244.048046
P  2  23133.093010  -5901.057351  11946.920449   -250.466470
P  3  15413.578459  -3839.498271  21241.833662     55.534012
P  4 -16835.824011  -2678.055853 -20382.498793    284.490037
P  5  -7632.041219  14466.132795 -20972.225247     27.260517
P  6   6014.067325  25568.748452  -3016.845324     -5.476780
P  7 -15851.394526 -17066.424319 -12578.336755    510.128545
P  8 -10266.687823 -11099.400450  21608.444001    539.665031
P  9 -13644.917632  21897.946165  -5589.191589     -4.551570
P 10 -23846.630076   2602.091161  11631.024339     10.108516
P 11  13016.621250 -22578.212782  -5036.913249     18.411590
P 13  -6379.515454 -25721.536353  -2407.934861    -12.468052
P 14  15465.549654  16158.346840 -14241.748653    -53.610983
P 18  12840.667389  15804.803577  17119.809647    -49.205970
P 20   7813.933664 -13587.281411 -21513.083721   -182.342343
P 21  22434.704799  11711.955567   9452.794494     -3.192334
P 22  26017.746599   -819.616226   6128.203988    487.498964
P 23 -11109.995165  11781.447692  21532.892788      7.750843
P 24 -21386.238400  10468.872171 -11474.428325     51.201438
P 25  18277.781681   -878.910619 -18898.200037     31.113302
P 26 -10531.247903  12887.248263  20370.046001    122.737693
P 27  -1704.426242 -18993.993128  18605.019727     79.789954
P 28 -20797.570309 -12620.898003  11089.838612    -89.782480
P 29 -12410.913895   9616.014989  21676.551250    178.887327
P 30   4725.577025  16226.133775 -20706.663706    185.023039
P 31   8068.058360 -17028.689839  18310.010445    357.267440
*  2002  8 20  2 45  0.00000000                             
P  1   2489.450277 -22020.335989 -14451.093625    244.048713
P  2  24251.427655  -5488.919145   9506.006250   -250.470682
P  3  16314.095571  -1583.133559  20867.996772     55.536507
P  4 -15283.994557  -4490.169676 -21241.906130    284.500348
P  5  -9958.631215  14091.392992 -20221.894156     27.261251
P  6   5528.783670  25183.351791  -5779.991246     -5.477087
P  7 -16110.088603 -18418.844166 -10207.839615    510.103738
P  8  -8551.573279 -12926.612469  21320.276422    539.645582
P  9 -14175.285738  22046.887233  -2790.232140     -4.553184
P 10 -24974.712698   2222.739430   9088.087791     10.108810
P 11  13572.350219 -22696.136186  -2313.068400     18.411715
P 13  -6040.703133 -25381.487437  -5241.267248    -12.468749
P 14  15792.475537  17638.661034 -11941.372250    -53.608817
P 18  10816.595947  15463.596911  18737.948298    -49.203467
P 20  10171.476384 -13100.629984 -20819.515597   -182.344618
P 21  21285.649815  11611.336395  11958.760317     -3.193864
P 22  26563.854432   -462.727360   3431.148163    487.505551
P 23 -13331.175428  11178.141263  20537.347654      7.751751
P 24 -20493.830706   9264.945956 -13833.979156     51.204895
P 25  17022.949665   1050.975648 -20020.300178     31.112950
P 26 -11413.161369  10625.294311  21230.304104    122.761437
P 27   -326.746906 -20452.426537  16983.013215     79.793236
P 28 -19409.406058 -12557.602316  13435.394462    -89.782948
P 29 -13303.269089   7338.827718  22029.500738    178.910152
P 30   2375.704039  15918.125044 -21338.100804    185.065548
P 31   9043.532425 -15008.370395  19588.296431    357.270406
*  2002  8 20  3  0  0.00000000                             
P  1   3316.918136 -20417.967999 -16476.395297    244.052644
P  2  25109.218708  -5136.372827   6902.641827   -250.475997
P  3  17292.781184    570.275422  20134.078918     55.538737
P  4 -13781.927808  -6444.863346 -21735.444885    284.510696
P  5 -12198.388033  13835.254451 -19124.501820     27.261955
P  6   4902.824452  24538.581414  -8442.086748     -5.476633
P  7 -16319.007784 -19500.752829  -7660.705913    510.079182
P  8  -6965.659085 -14798.549581  20656.807399    539.626263
P  9 -14512.689249  21959.038720     57.823546     -4.553275
P 10 -25828.307607   1945.356403   6390.642918     10.108616
P 11  13951.988545 -22581.419495    450.652346     18.412554
P 13  -5561.809810 -24769.516582  -7984.913970    -12.469515
P 14  16090.664887  18848.332464  -9434.464550    -53.607451
P 18   8613.749613  15201.310880  20034.861882    -49.201057
P 20  12453.649416 -12751.056294 -19770.045413   -182.347092
P 21  19869.012556  11539.570446  14269.560534     -3.195735
P 22  26821.879264   -152.881044    676.490286    487.511969
P 23 -15458.491414  10723.673044  19202.204250      7.750557
P 24 -19504.649604   7814.767357 -15951.215433     51.208417
P 25  15802.752043   3129.396344 -20787.616132     31.112614
P 26 -12441.059874   8346.901745  21716.128631    122.785196
P 27    869.578537 -21816.639580  15069.639468     79.796787
P 28 -17771.281831 -12535.130561  15554.302756    -89.783321
P 29 -14325.880291   5095.465327  22011.833962    178.932908
P 30    -37.215392  15722.488320 -21609.197974    185.107720
P 31  10166.918020 -12923.700150  20518.730452    357.273300
*  2002  8 20  3 15  0.00000000                             
P  1   4321.119308 -18667.451517 -18214.462200    244.054763
P  2  25685.958709  -4811.568294   4180.300492   -250.480430
P  3  18321.400908   2584.383796  19053.190826     55.541769
P  4 -12365.005072  -8507.719945 -21853.768650    284.521242
P  5 -14307.298049  13686.348316 -17698.384252     27.262909
P  6   4112.060663  23662.365760 -10956.373845     -5.477806
P  7 -16441.006010 -20308.672915  -4981.639374    510.054579
P  8  -5532.919726 -16671.397880  19629.271012    539.606659
P  9 -14684.251970  21610.342670   2904.825249     -4.554610
P 10 -26385.792949   1736.000303   3584.649920     10.108102
P 11  14182.551410 -22214.265933   3206.604597     18.413064
P 13  -4915.097074 -23913.759325 -10591.939710    -12.470150
P 14  16320.073852  19778.056397  -6764.396628    -53.605543
P 18   6272.238324  15041.881875  20987.922830    -49.198477
P 20  14613.743089 -12530.056848 -18382.604404   -182.349467
P 21  18208.368071  11531.398567  16347.790848     -3.197654
P 22  26786.785127    144.234696  -2089.498897    487.518392
P 23 -17446.046868  10407.603865  17548.373834      7.750162
P 24 -18462.643418   6127.325038 -17788.307258     51.210321
P 25  14650.805228   5321.653393 -21186.517071     31.112058
P 26 -13601.150519   6101.467023  21820.725549    122.808944
P 27   1884.315879 -23042.794675  12896.064652     79.800477
P 28 -15911.226883 -12584.767892  17410.802728    -89.783594
P 29 -15458.380593   2929.775163  21623.524533    178.955522
P 30  -2467.488339  15646.870658 -21515.234938    185.149946
P 31  11428.696194 -10821.926809  21085.325562    357.276174
*  2002  8 20  3 30  0.00000000                             
P  1   5505.216859 -16814.944170 -19634.700643    244.054725
P  2  25968.878265  -4480.202974   1385.299684   -250.485407
P  3  19366.736263   4428.783127  17644.387623     55.545536
P  4 -11062.718403 -10638.504014 -21593.999485    284.531736
P  5 -16244.866274  13626.371235 -15967.585091     27.265216
P  6   3138.667068  22588.617332 -13278.601127     -5.479622
P  7 -16440.183476 -20847.620793  -2217.178858    510.029947
P  8  -4269.460363 -18498.737047  18255.495267    539.586814
P  9 -14722.064448  20984.336458   5700.239225     -4.555481
P 10 -26633.902025   1557.557867    717.812423     10.108452
P 11  14295.131400 -21581.978931   5907.301182     18.413566
P 13  -4079.083712 -22848.673560 -13017.740275    -12.470991
P 14  16440.942388  20427.449072  -3977.363667    -53.603746
P 18   3836.735075  15002.343924  21580.341965    -49.195949
P 20  16608.197725 -12421.522302 -16680.865290   -182.351706
P 21  16334.162355  11617.076977  18159.697446     -3.199154
P 22  26461.488411    463.275828  -4820.775573    487.524517
P 23 -19251.103207  10211.901684  15602.055118      7.749638
P 24 -17410.893042   4220.663181 -19312.266066     51.213021
P 25  13595.020911   7587.516255 -21210.091289     31.113047
P 26 -14871.847740   3935.286275  21544.157059    122.832933
P 27   2724.976681 -24089.036375  10498.398168     79.803920
P 28 -13863.755092 -12732.709635  18973.458669    -89.783993
P 29 -16673.396910    881.537695  20870.656421    178.978327
P 30  -4868.655618  15691.266200 -21057.542131    185.192294
P 31  12811.544048  -8748.753727  21278.777012    357.279214
EOF                                                         
